FENGYUN 1C DEB          
1 31340U 99025BQU 17345.87683135  .00001162  00000-0  61163-3 0  9997
2 31340  99.0607   5.9761 0043194 121.6971   1.8187 14.15567887253254
